#aV2006 11 30  0  0   .00000000      96 DD+AD WGS84 FIT  NGA
## 1403 345600.00000000   900.00000000 54069  .0000000000000
+   30     1  2  3  4  5  6  7  8  9 10 11 12 13 14 16 17 18
+         19 20 21 22 23 24 25 26 27 28 29 30 31  0  0  0  0
+          0  0  0  0  0  0  0  0  0  0  0  0  0  0  0  0  0
+          0  0  0  0  0  0  0  0  0  0  0  0  0  0  0  0  0
+          0  0  0  0  0  0  0  0  0  0  0  0  0  0  0  0  0
++         0  0  0  0  0  0  0  0  0  0  0  0  0  0  0  0  0
++         0  0  0  0  0  0  0  0  0  0  0  0  0  0  0  0  0
++         0  0  0  0  0  0  0  0  0  0  0  0  0  0  0  0  0
++         0  0  0  0  0  0  0  0  0  0  0  0  0  0  0  0  0
++         0  0  0  0  0  0  0  0  0  0  0  0  0  0  0  0  0
%c cc cc ccc ccc cccc cccc cccc cccc ccccc ccccc ccccc ccccc
%c cc cc ccc ccc cccc cccc cccc cccc ccccc ccccc ccccc ccccc
%f  0.0000000  0.000000000  0.00000000000  0.000000000000000
%f  0.0000000  0.000000000  0.00000000000  0.000000000000000
%i    0    0    0    0      0      0      0      0         0
%i    0    0    0    0      0      0      0      0         0
/*      NGA, ST. LOUIS,MO.                                  
/*   EPHEMERIS COMPUTED FROM  3 DAYS OF DATA                
/* CCCCCCCCCCCCCCCCCCCCCCCCCCCCCCCCCCCCCCCCCCCCCCCCCCCCCCCCC
/* CCCCCCCCCCCCCCCCCCCCCCCCCCCCCCCCCCCCCCCCCCCCCCCCCCCCCCCCC
*  2006 11 30  6 15   .00000000                                                 
P  1 -21689.012951 -15393.344322     10.715710     92.712453                    
V  1    879.276582  -1650.818096  32329.526268       .028354                    
P  2  13469.871631  12434.523284 -19539.208938     59.452590                    
V  2  -2317.760644  24188.068461  13725.826359       .035752                    
P  3 -24403.953576 -10617.516149   2381.871370    433.345281                    
V  3  -1214.514064  -4707.970456 -30559.807289       .241192                    
P  4   6390.614568  23163.553309 -10958.396747    341.666585                    
V  4  -3933.099839  13767.016480  27289.353466       .037402                    
P  5  22819.929900 -13364.201858   1058.254630    398.414744                    
V  5    565.348653   3966.448382  31314.084809       .242802                    
P  6   7638.297746 -13739.220623 -21221.410514    531.082651                    
V  6  23661.547979  14001.393066   -598.476262      -.157876                    
P  7  -6871.039959 -18531.470619 -17330.185155    484.768592                    
V  7  21012.198914   9238.800167 -17922.078659      -.084649                    
P  8  -1141.425455  26216.623734   1902.646017    -87.791918                    
V  8  -2941.907070   2340.669671 -32255.357088      -.013735                    
P  9  14188.178440  -8151.827836  20295.943545     46.807805                    
V  9    807.743221  27144.569114  10291.090529       .016015                    
P 10  21301.692282   1864.795970 -16054.754485     93.649527                    
V 10 -17402.982685  10074.775684 -21744.924816       .006531                    
P 11 -14186.697556  11415.685269  19170.201508     -2.338332                    
V 11  -4660.789130 -24526.906426  11387.535647       .016006                    
P 12  22975.138095  -1191.280435  13613.428225   -293.177315                    
V 12 -14131.623929   9651.515541  24782.693086       .142835                    
P 13  -5401.595449  13791.506199 -22139.390238    117.684209                    
V 13 -23006.571359 -15608.148771  -4086.624778       .036760                    
P 14 -11738.071305 -19176.706693  14279.147568       .310795                    
V 14  15690.421453   8760.356816  24733.659419       .010200                    
P 16 -18262.688674  -5292.773992 -18515.094595     96.872831                    
V 16  20506.928166 -11816.479687 -16659.462448       .038457                    
P 17  11685.531113  19332.411394  14054.119063     87.950315                    
V 17 -16083.646268  -7943.250037  24177.619050      -.013115                    
P 18  11558.868377 -17754.111429  15950.539264   -253.101067                    
V 18  19221.767939  -6454.903122 -21605.319405      -.003594                    
P 19 -22554.860075  -5030.552111  13266.603794     39.611214                    
V 19 -12092.297646 -11675.788289 -25083.984209       .040716                    
P 20 -22568.905911  13782.311914  -2342.304140    -21.788634                    
V 20  -3949.684191  -1327.301678  31462.863589      -.000119                    
P 21   5188.161030 -25386.056006  -4194.174051     63.291788                    
V 21   3371.979309   5839.666411 -31065.010448       .014330                    
P 22  -1719.598339 -15891.241539  21373.079450    152.752722                    
V 22  24641.596932 -10523.672271  -5907.180464       .025984                    
P 23 -16335.243479   5963.320423 -20212.913609    141.556525                    
V 23 -20876.849617 -14499.396838  12456.006148       .008962                    
P 24  12736.349767  11963.784562 -19734.997915     56.286855                    
V 24  -3915.107989  25302.405208  12975.344681       .030330                    
P 25 -11174.143808 -18731.670593 -14645.163370    406.683224                    
V 25   1506.121606 -19461.862736  23267.737132      -.006350                    
P 26  22952.075454   6334.972565  11941.446488    -26.438893                    
V 26  12099.308992   9862.468617 -26993.065538      -.165961                    
P 27  -5024.746098  24574.887875  -7636.613718     80.626817                    
V 27  -3120.439590 -10583.987929 -29899.550755       .019187                    
P 28  -2138.145459  16997.372239  20507.443886     13.090217                    
V 28 -23373.111726  10159.548565 -11369.265885      -.008153                    
P 29  23890.624765   8426.040391   8736.771619    230.506808                    
V 29   8173.215819   6992.586675 -29564.741208       .256589                    
P 30  16493.809029 -18024.060331 -10583.971130     17.969208                    
V 30  12815.813906  -3856.922821  27436.542910       .011932                    
P 31  -8607.439641 -20962.364649 -13625.525119    -31.954380                    
V 31   3083.104190 -17524.520567  24703.406717       .087361                    
EOF
